{"fetched_at":"2026-03-29T16:36:15Z","count":15609,"tles":[{"name":"STARLINK-11561 [DTC]","line1":"1 62908U 25027B   26087.81925641  .00213249  00000+0  16203-2 0  9994","line2":"2 62908  42.9995 232.0965 0001258 258.2462 101.8265 15.70881989 66165","category":"Starlink"}]}