{
  "norad_id": 62908,
  "name": "STARLINK-11561 [DTC]",
  "history": [
    {
      "epoch": "2026-03-28T19:39:43.753824Z",
      "apogee_km": 357.2222534375496,
      "perigee_km": 355.52785020531246,
      "latitude_deg": 3.4440482915936056e-05,
      "longitude_deg": 110.9299972662968,
      "height_km": 356.31984764918894,
      "semi_major_axis_km": 6734.512051821431,
      "eccentricity": 0.0001258,
      "inclination_deg": 42.9995,
      "raan_deg": 232.0965,
      "arg_perigee_deg": 258.2462,
      "mean_anomaly_deg": 101.8265,
      "mean_motion_rev_day": 15.70881989
    }
  ]
}